OBJECT_NAME,OBJECT_ID,EPOCH,MEAN_MOTION,ECCENTRICITY,INCLINATION,RA_OF_ASC_NODE,ARG_OF_PERICENTER,MEAN_ANOMALY,EPHEMERIS_TYPE,CLASSIFICATION_TYPE,NORAD_CAT_ID,ELEMENT_SET_NO,REV_AT_EPOCH,BSTAR,MEAN_MOTION_DOT,MEAN_MOTION_DDOT
NOAA 18,2005-018A,2026-06-04T00:41:23.894592,14.13726820,.0014221,98.8113,234.8963,184.0268,176.0793,0,U,28654,999,8445,.61583E-4,.73E-6,0
SJ-7,2005-024A,2026-06-04T01:38:30.842592,15.21332503,.0017338,97.7286,184.8207,80.1895,280.1297,0,U,28737,999,14603,.4142E-3,.9241E-4,0
CUBESAT XI-V,2005-043F,2026-06-01T08:48:31.503456,14.72584583,.00128374,98.2967,307.6587,254.1655,105.8136,0,U,28895,999,9942,.27161207E-3,.1677E-4,0
CLOUDSAT,2006-016A,2026-06-04T03:46:04.252224,14.86367015,.0005712,98.3933,191.7251,28.3198,331.8326,0,U,29107,999,7257,.15947E-3,.1346E-4,0
CALIPSO,2006-016B,2026-06-04T05:20:01.124736,14.69323882,.000117,98.4471,170.4442,72.9787,287.1545,0,U,29108,999,7115,.22292E-3,.1264E-4,0
HINODE (SOLAR-B),2006-041A,2026-06-04T00:51:37.861632,14.68603378,.0016716,98.0548,171.3823,334.4034,25.6342,0,U,29479,999,5294,.15465E-3,.851E-5,0
METOP-A,2006-044A,2026-06-04T04:50:50.716896,14.75921160,.0175296,98.3325,261.4979,110.7092,81.3449,0,U,29499,999,2353,.36131E-3,.313E-4,0
SHIJIAN-6 02B (SJ-6 02B),2006-046B,2026-06-04T03:36:06.243264,15.01341330,.0014265,97.7155,184.2890,98.7555,261.5286,0,U,29506,999,6878,.12952E-3,.161E-4,0
DMSP 5D-3 F17 (USA 191),2006-050A,2026-06-04T03:48:40.671648,14.14991107,.0011325,98.7378,161.9955,92.6302,267.6168,0,U,29522,999,1058,.53369E-4,.6E-6,0
LAPAN-TUBSAT,2007-001A,2026-06-04T04:34:37.578144,14.85934922,.0010947,98.1337,154.1218,224.3535,135.6803,0,U,29709,999,4922,.71111E-5,.4E-7,0
HAIYANG-1B,2007-010A,2026-06-03T13:55:35.735808,14.31023350,.00123401,98.3489,136.9535,239.3242,120.6726,0,U,31113,999,99868,.54011753E-4,.1E-5,0
BEIDOU-2 M1,2007-011A,2026-06-02T17:16:35.479776,1.77349459,.00016134,50.9343,219.7596,338.2087,21.8767,0,U,31115,999,7589,0,.34E-6,0
CAPE-1,2007-012P,2026-06-03T10:34:32.132352,14.64835568,.00847595,98.4455,128.5684,113.6984,247.3140,0,U,31130,999,1634,.28474573E-3,.1548E-4,0
CBERS 2B,2007-042A,2026-06-03T07:13:44.118912,14.41468124,.00314826,98.3920,99.1933,18.8869,100.9328,0,U,32062,999,98268,.10994843E-3,.316E-5,0
COSMO-SKYMED 2,2007-059A,2026-06-04T04:46:34.788864,14.82160301,.000146,97.8884,338.9856,87.6919,272.4462,0,U,32376,999,8,.62668E-4,.447E-5,0
CARTOSAT-2A,2008-021A,2026-06-04T04:39:33.473952,14.79218921,.0012396,97.7636,204.3454,147.3107,212.8874,0,U,32783,999,97688,.11246E-3,.786E-5,0
CUTE-1.7+APD II (CO-65),2008-021C,2026-06-04T02:56:39.962400,15.09320521,.0010699,97.8273,136.2716,76.9308,283.3114,0,U,32785,999,98322,.34597E-3,.5458E-4,0
SEEDS II (CO-66),2008-021J,2026-06-03T13:18:22.326048,15.32257900,.00029913,97.7515,151.8069,42.0128,318.1342,0,U,32791,999,98520,.64842083E-3,.20146E-3,0
YUBILEINY (RS30),2008-025A,2026-06-04T01:27:52.027776,12.43178772,.0019413,82.5045,3.6071,343.2066,16.8369,0,U,32953,999,81806,.18825E-4,.12E-6,0
FENGYUN 3A,2008-026A,2026-06-03T10:39:20.171808,14.19568113,.00089901,98.6881,95.5346,160.5127,199.6395,0,U,32958,999,93345,.67514327E-4,.99E-6,0
HUANJING 1A (HJ-1A),2008-041A,2026-06-04T05:16:55.618752,14.83955363,.0018734,97.6677,141.5608,176.2131,183.9229,0,U,33320,999,95648,.13258E-3,.1054E-4,0
HUANJING 1B (HJ-1B),2008-041B,2026-06-04T04:23:58.682112,14.83292100,.0035032,97.6512,144.7360,224.6939,135.1451,0,U,33321,999,95648,.84086E-4,.643E-5,0
SHIJIAN-6 03A (SJ-6 03A),2008-053A,2026-06-04T04:29:40.195392,15.17031965,.001274,97.8408,188.0569,61.5636,298.6878,0,U,33408,999,96099,.31244E-3,.612E-4,0
SHIJIAN-6 03B (SJ-6 03B),2008-053B,2026-06-04T04:41:19.722624,15.04272073,.0020732,97.8576,174.8712,85.1439,275.2153,0,U,33409,999,96079,.17912E-3,.2439E-4,0
CHUANGXIN 1-02 (CX-1-02),2008-056B,2026-06-04T05:08:53.659680,14.30150094,.0014231,98.6133,181.6101,173.5062,186.6308,0,U,33434,999,91676,.15542E-4,-.4E-7,0
STARS (KUKAI),2009-002G,2026-06-03T15:19:22.134432,14.95649410,.00076648,98.1544,101.3959,206.9688,153.1134,0,U,33498,999,93645,.35869272E-3,.3927E-4,0
KKS-1 (KISEKI),2009-002H,2026-06-04T00:47:38.518080,14.83088133,.0007429,98.1193,77.2670,343.9089,16.1886,0,U,33499,999,93424,.20411E-3,.1607E-4,0
NOAA 19,2009-005A,2026-06-04T02:18:24.960672,14.13472133,.0014745,98.9521,225.9612,69.5062,290.7691,0,U,33591,999,89263,.51558E-4,.52E-6,0
UK-DMC 2,2009-041C,2026-06-04T05:02:22.254720,14.76009822,.0001362,97.8825,290.4944,73.6829,286.4530,0,U,35683,999,90465,.14947E-3,.98E-5,0
METEOR-M 1,2009-049A,2026-06-03T12:09:10.832832,14.23153655,.00023626,98.7379,117.0789,18.2584,341.8679,0,U,35865,999,86730,.64277471E-4,.101E-5,0
OCEANSAT-2,2009-051A,2026-06-04T04:32:21.346944,13.99662340,.0014519,98.2321,143.3374,276.0806,83.8707,0,U,35931,999,87751,.18079E-3,.227E-5,0
SWISSCUBE,2009-051B,2026-06-03T06:42:55.096704,14.62453382,.00053989,98.4045,61.9256,254.9932,105.0671,0,U,35932,999,88712,.25059349E-3,.122E-4,0
BEESAT-1,2009-051C,2026-06-03T14:58:59.003328,14.61697093,.00039096,98.3973,61.9398,272.0464,88.0289,0,U,35933,999,88720,.20663001E-3,.98E-5,0
ITUPSAT1,2009-051E,2026-06-03T06:15:28.683360,14.60418625,.00061718,98.4058,60.7773,286.3801,73.6720,0,U,35935,999,88670,.20304473E-3,.935E-5,0
DMSP 5D-3 F18 (USA 210),2009-057A,2026-06-04T03:06:11.965824,14.14889165,.0009952,98.9033,135.9272,291.1345,68.8764,0,U,35951,999,85774,.1672E-3,.278E-5,0
PROBA-2,2009-059B,2026-06-04T00:51:11.289312,14.54856510,.001245,98.2448,338.5709,326.2458,33.7945,0,U,36037,999,87961,.5784E-4,.203E-5,0
YAOGAN-7,2009-069A,2026-06-03T18:02:46.627584,14.77995556,.0026031,98.0087,40.7010,83.0152,277.4018,0,U,36110,999,88764,.92742922E-4,.62E-5,0
XIWANG-1 (HOPE-1),2009-072B,2026-06-04T04:07:43.812768,13.16437079,.0006794,100.4026,109.2127,264.4466,95.5872,0,U,36122,999,79129,-.66176E-3,-.297E-5,0
RADUGA-1M 2,2010-002A,2026-06-04T03:20:28.133664,0.98969449,.0006009,3.5869,79.0192,269.4317,324.2269,0,U,36358,999,4989,0,-.113E-5,0
COSMOS 2463,2010-017A,2026-06-03T07:54:11.035296,13.71664709,.0036592,82.9608,259.8868,166.4676,248.5399,0,U,36519,999,80603,.49616494E-4,.6E-6,0
CARTOSAT-2B,2010-035A,2026-06-04T03:27:21.000384,14.78642945,.0010244,97.9955,205.7758,228.9272,131.1055,0,U,36795,999,85792,.61905E-4,.401E-5,0
AISSAT 1,2010-035C,2026-06-03T23:29:02.678208,14.97298146,.0010056,98.0924,53.7568,100.3066,259.9289,0,U,36797,999,86224,.21655E-3,.245E-4,0
TISAT 1,2010-035E,2026-06-03T07:55:54.974496,15.31153617,.00005682,98.0708,99.6565,17.2069,342.9189,0,U,36799,999,86558,.76310205E-3,.22924E-3,0
YAOGAN-10,2010-038A,2026-06-04T05:27:56.488032,14.85306247,.0001608,97.8975,178.7350,88.1510,42.4803,0,U,36834,999,85528,.20066E-3,.167E-4,0
SHIJIAN-6 04B (SJ-6 04B),2010-051B,2026-06-04T03:24:55.622880,14.99284717,.0009756,97.8678,160.4202,354.6284,5.4833,0,U,37180,999,85372,.79918E-4,.914E-5,0
FENGYUN 3B,2010-059A,2026-06-04T05:23:31.111296,14.14836970,.002124,98.9620,201.1833,221.6544,219.0677,0,U,37214,999,80559,-.11988E-3,-.277E-5,0
COSMO-SKYMED 4,2010-060A,2026-06-04T03:27:36.050400,14.82159777,.0001418,97.8881,338.9330,84.3974,275.7401,0,U,37216,999,84263,.11939E-3,.898E-5,0
O/OREOS (USA 219),2010-062C,2026-06-04T00:04:09.194016,14.93684023,.001235,71.9701,110.2018,92.0323,268.2262,0,U,37224,999,11467,.25562E-3,.2646E-4,0
ELEKTRO-L 1 (GOMS 2),2011-001A,2026-06-03T14:53:29.134176,1.00156431,.00045176,9.6553,54.6432,27.8652,287.0942,0,U,37344,999,5634,0,-.66E-6,0
RESOURCESAT-2,2011-015A,2026-06-04T05:00:55.902240,14.21603556,.0010192,98.7646,222.7399,297.2827,62.7312,0,U,37387,999,78433,.70613E-4,.111E-5,0
YOUTHSAT,2011-015B,2026-06-03T13:13:37.530048,14.25624361,.00150616,98.3675,129.2206,26.6675,88.8490,0,U,37388,999,78569,.11044195E-3,.221E-5,0
APRIZESAT 6,2011-044F,2026-06-03T15:57:52.859232,14.76895152,.0044159,98.2373,64.8884,128.0800,296.4477,0,U,37793,999,79515,.12461E-3,.834E-5,0
JUGNU,2011-058B,2026-06-01T01:53:10.333248,14.13771859,.00184994,19.9618,46.2876,258.1927,242.1590,0,U,37839,999,75674,.98509485E-4,.456E-5,0
SRMSAT,2011-058D,2026-06-01T07:49:45.421824,14.11572059,.00118641,19.9701,155.4732,30.5063,85.9028,0,U,37841,999,75557,.70452217E-4,.395E-5,0
SUOMI NPP,2011-061A,2026-06-04T03:49:52.696416,14.19514574,.0002212,98.7951,96.1250,34.6599,325.4721,0,U,37849,999,75659,.70884E-4,.105E-5,0
YAOGAN-12,2011-066B,2026-06-04T05:18:27.071424,15.26427424,.0007979,97.1144,194.3995,272.2234,87.8091,0,U,37875,999,81006,.22134E-3,.57E-4,0
BEIDOU-2 M4,2012-018B,2026-06-01T00:17:34.485216,1.86229761,.00110626,55.6723,304.6348,278.2217,81.6260,0,U,38251,999,9564,0,-.79E-6,0
ARIRANG-3 (KOMPSAT-3),2012-025B,2026-06-04T04:01:29.857152,14.62194106,.0006037,98.1171,112.8530,143.2342,216.9274,0,U,38338,999,74944,.10798E-3,.497E-5,0
HORYU-2,2012-025D,2026-06-04T03:40:21.888768,14.90984575,.0007434,98.2165,287.5581,217.7503,142.3193,0,U,38340,999,74678,.37681E-3,.3665E-4,0
CSSWE,2012-048D,2026-06-04T01:55:28.549056,15.43804331,.0049322,64.6610,137.8694,177.8777,182.2580,0,U,38761,999,11437,.55932E-3,.26483E-3,0
CP5,2012-048F,2026-06-03T12:23:10.069728,15.27460418,.00808855,64.6433,197.7600,180.6561,179.4476,0,U,38763,999,11467,.4350155E-3,.12725E-3,0
METOP-B,2012-049A,2026-06-04T04:00:47.358720,14.21429136,.0002943,98.6509,206.9256,49.0204,311.1227,0,U,38771,999,71141,.84316E-4,.141E-5,0
SJ-9A,2012-056A,2026-06-04T03:55:59.808288,14.85447210,.0024215,97.6702,127.5874,302.3843,57.5029,0,U,38860,999,69765,.1615E-3,.1346E-4,0
COSMOS 2484 (RODNIK-S 6),2013-001C,2026-06-04T04:28:43.243968,12.42938740,.002731,82.5026,229.9744,64.2323,296.1570,0,U,39059,999,60694,.31065E-3,.53E-6,0
SARAL,2013-009A,2026-06-04T04:36:33.373152,14.32852736,.0001451,98.5557,341.9241,4.5997,355.5201,0,U,39086,999,69374,.48672E-4,.89E-6,0
AAUSAT 3,2013-009B,2026-06-03T18:28:00.025536,14.39922112,.00101597,98.3699,338.8692,250.3163,109.6930,0,U,39087,999,69524,.24833695E-3,.738E-5,0
